NAVSTAR 77 (USA 289)    
1 43873U 18109A   24269.04824931  .00000001  00000+0  00000+0 0  9997
2 43873  55.3358 117.0797 0030700 191.9279 340.3899  2.00560040 42432
